H1 CPF 01  gfz 2022 10 09 12  7822 terrasarx 
H2 0702601  6201 31698    2022 10 09 12 59 42 2022 10 14 00 00 42   120 1 1  0 0 0
H9
10 0 59861  63342.000000  0   -2540952.182  -1116683.146   6294158.517
10 0 59861  63462.000000  0   -3369041.707  -1127072.847   5891558.228
10 0 59861  63582.000000  0   -4138193.477  -1103806.550   5385355.415
10 0 59861  63702.000000  0   -4834373.464  -1048437.058   4784414.948
10 0 59861  63822.000000  0   -5444847.857   -963312.955   4099276.458
10 0 59861  63942.000000  0   -5958424.279   -851514.023   3341972.473
10 0 59861  64062.000000  0   -6365665.457   -716769.348   2525819.145
10 0 59861  64182.000000  0   -6659073.463   -563359.970   1665182.448
10 0 59861  64302.000000  0   -6833237.802   -396008.141    775220.277
10 0 59861  64422.000000  0   -6884940.981   -219756.389   -128392.179
10 0 59861  64542.000000  0   -6813220.377    -39838.784  -1029747.278
10 0 59861  64662.000000  0   -6619383.879    138452.173  -1912994.237
10 0 59861  64782.000000  0   -6306980.376    309898.804  -2762624.314
10 0 59861  64902.000000  0   -5881727.552    469489.018  -3563749.897
10 0 59861  65022.000000  0   -5351394.226    612541.596  -4302368.995
10 0 59861  65142.000000  0   -4725645.213    734822.122  -4965608.384
10 0 59861  65262.000000  0   -4015852.060    832646.974  -5541942.537
10 0 59861  65382.000000  0   -3234875.849    902973.310  -6021385.050
10 0 59861  65502.000000  0   -2396826.468    943472.689  -6395650.424
10 0 59861  65622.000000  0   -1516804.959    952588.316  -6658285.565
10 0 59861  65742.000000  0    -610631.293    929575.195  -6804770.211
10 0 59861  65862.000000  0     305435.326    874521.584  -6832584.761
10 0 59861  65982.000000  0    1214979.827    788352.218  -6741249.693
10 0 59861  66102.000000  0    2101719.357    672812.970  -6532335.252
10 0 59861  66222.000000  0    2949788.973    530437.344  -6209436.958
10 0 59861  66342.000000  0    3744021.270    364495.558  -5778119.884
10 0 59861  66462.000000  0    4470215.021    178925.507  -5245831.771
10 0 59861  66582.000000  0    5115390.679    -21751.845  -4621786.436
10 0 59861  66702.000000  0    5668029.157   -232532.094  -3916815.333
10 0 59861  66822.000000  0    6118286.216   -448040.438  -3143188.603
10 0 59861  66942.000000  0    6458179.257   -662655.942  -2314409.079
10 0 59861  67062.000000  0    6681742.198   -870644.444  -1444979.964
10 0 59861  67182.000000  0    6785142.300  -1066296.309   -550150.164
10 0 59861  67302.000000  0    6766756.026  -1244066.264    354356.866
10 0 59861  67422.000000  0    6627201.786  -1398711.691   1252626.364
10 0 59861  67542.000000  0    6369326.994  -1525426.152   2128840.654
10 0 59861  67662.000000  0    5998150.608  -1619963.991   2967567.441
10 0 59861  67782.000000  0    5520760.497  -1678752.103   3754039.648
10 0 59861  67902.000000  0    4946170.614  -1698987.970   4474420.753
10 0 59861  68022.000000  0    4285141.530  -1678719.821   5116050.468
10 0 59861  68142.000000  0    3549970.201  -1616907.178   5667667.166
10 0 59861  68262.000000  0    2754251.891  -1513461.791   6119603.431
10 0 59861  68382.000000  0    1912621.286  -1369267.685   6463949.657
10 0 59861  68502.000000  0    1040478.684  -1186180.484   6694686.983
10 0 59861  68622.000000  0     153704.671   -967004.957   6807786.852
10 0 59861  68742.000000  0    -731629.903   -715451.636   6801275.796
10 0 59861  68862.000000  0   -1599553.863   -436074.014   6675266.875
10 0 59861  68982.000000  0   -2434482.302   -134186.407   6431957.761
10 0 59861  69102.000000  0   -3221495.419    184236.210   6075595.619
10 0 59861  69222.000000  0   -3946606.576    512674.662   5612408.606
10 0 59861  69342.000000  0   -4597015.252    844196.399   5050503.121
10 0 59861  69462.000000  0   -5161339.446   1171598.799   4399727.978
10 0 59861  69582.000000  0   -5629823.343   1487562.448   3671506.083
10 0 59861  69702.000000  0   -5994514.403   1784810.708   2878636.432
10 0 59861  69822.000000  0   -6249407.343   2056272.322   2035069.725
10 0 59861  69942.000000  0   -6390551.605   2295243.185   1155660.528
10 0 59861  70062.000000  0   -6416118.304   2495543.789    255899.300
10 0 59861  70182.000000  0   -6326423.492   2651667.008   -648368.828
10 0 59861  70302.000000  0   -6123908.309   2758912.767  -1541232.083
10 0 59861  70422.000000  0   -5813076.463   2813506.791  -2407000.576
10 0 59861  70542.000000  0   -5400389.814   2812700.156  -3230490.125
10 0 59861  70662.000000  0   -4894125.343   2754846.087  -3997292.724
10 0 59861  70782.000000  0   -4304199.166   2639453.622  -4694028.869
10 0 59861  70902.000000  0   -3641961.858   2467216.853  -5308576.948
10 0 59861  71022.000000  0   -2919971.536   2240020.168  -5830275.561
10 0 59861  71142.000000  0   -2151750.991   1960920.062  -6250098.721
10 0 59861  71262.000000  0   -1351530.656   1634103.106  -6560801.498
10 0 59861  71382.000000  0    -533985.541   1264821.654  -6757032.530
10 0 59861  71502.000000  0     286029.635    859309.012  -6835416.220
10 0 59861  71622.000000  0    1093743.086    424676.071  -6794604.747
10 0 59861  71742.000000  0    1874726.842    -31210.874  -6635300.500
10 0 59861  71862.000000  0    2615148.718   -499869.170  -6360244.077
10 0 59861  71982.000000  0    3302012.886   -972353.137  -5974172.841
10 0 59861  72102.000000  0    3923385.789  -1439419.897  -5483746.790
10 0 59861  72222.000000  0    4468604.517  -1891705.793  -4897445.565
10 0 59861  72342.000000  0    4928465.024  -2319911.950  -4225433.078
10 0 59861  72462.000000  0    5295384.584  -2714993.625  -3479391.619
10 0 59861  72582.000000  0    5563536.414  -3068350.003  -2672327.253
10 0 59861  72702.000000  0    5728952.429  -3372010.297  -1818347.515
10 0 59861  72822.000000  0    5789590.193  -3618811.455   -932416.021
10 0 59861  72942.000000  0    5745363.051  -3802563.769    -30087.979
10 0 59861  73062.000000  0    5598130.927  -3918199.021    872768.534
10 0 59861  73182.000000  0    5351652.095  -3961898.541   1760259.732
10 0 59861  73302.000000  0    5011495.282  -3931195.103   2616756.091
10 0 59861  73422.000000  0    4584914.970  -3825046.419   3427175.301
10 0 59861  73542.000000  0    4080695.170  -3643879.822   4177253.926
10 0 59861  73662.000000  0    3508964.717  -3389607.475   4853803.061
10 0 59861  73782.000000  0    2880986.671  -3065610.282   5444941.807
10 0 59861  73902.000000  0    2208930.831  -2676691.516   5940303.770
10 0 59861  74022.000000  0    1505632.451  -2229002.415   6331214.777
10 0 59861  74142.000000  0     784343.298  -1729941.720   6610838.600
10 0 59861  74262.000000  0      58479.954  -1188030.574   6774290.458
10 0 59861  74382.000000  0    -658625.927   -612765.075   6818716.884
10 0 59861  74502.000000  0   -1353971.394    -14449.306   6743341.739
10 0 59861  74622.000000  0   -2015116.937    595988.800   6549478.991
10 0 59861  74742.000000  0   -2630408.376   1207196.302   6240511.413
10 0 59861  74862.000000  0   -3189182.852   1807605.352   5821835.454
10 0 59861  74982.000000  0   -3681955.983   2385651.693   5300773.392
10 0 59861  75102.000000  0   -4100587.509   2929998.771   4686451.784
10 0 59861  75222.000000  0   -4438421.273   3429762.335   3989646.834
10 0 59861  75342.000000  0   -4690397.410   3874730.728   3222599.016
10 0 59861  75462.000000  0   -4853132.799   4255576.793   2398799.223
10 0 59861  75582.000000  0   -4924968.499   4564057.313   1532750.400
10 0 59861  75702.000000  0   -4905982.019   4793193.452    639706.858
10 0 59861  75822.000000  0   -4797964.447   4937426.003   -264601.383
10 0 59861  75942.000000  0   -4604363.919   4992744.417  -1164254.004
10 0 59861  76062.000000  0   -4330193.260   4956784.826  -2043431.520
10 0 59861  76182.000000  0   -3981906.044   4828893.341  -2886701.125
10 0 59861  76302.000000  0   -3567245.995   4610153.907  -3679293.992
10 0 59861  76422.000000  0   -3095071.795   4303380.463  -4407365.343
10 0 59861  76542.000000  0   -2575164.389   3913075.372  -5058232.828
10 0 59861  76662.000000  0   -2018022.310   3445357.059  -5620590.271
10 0 59861  76782.000000  0   -1434648.510   2907857.710  -6084696.096
10 0 59861  76902.000000  0    -836332.543   2309592.052  -6442531.949
10 0 59861  77022.000000  0    -234433.693   1660802.057  -6687929.172
10 0 59861  77142.000000  0     359830.673    972780.902  -6816664.405
10 0 59861  77262.000000  0     935588.767    257678.833  -6826525.076
10 0 59861  77382.000000  0    1482509.433   -471707.513  -6717343.821
10 0 59861  77502.000000  0    1990982.835  -1202159.124  -6490999.369
10 0 59861  77622.000000  0    2452285.429  -1920267.762  -6151387.794
10 0 59861  77742.000000  0    2858728.064  -2612675.927  -5704362.847
10 0 59861  77862.000000  0    3203785.173  -3266322.316  -5157647.122
10 0 59861  77982.000000  0    3482203.030  -3868689.398  -4520708.701
10 0 59861  78102.000000  0    3690082.034  -4408043.993  -3804606.412
10 0 59861  78222.000000  0    3824934.342  -4873669.106  -3021808.394
10 0 59861  78342.000000  0    3885715.962  -5256083.674  -2185982.690
10 0 59861  78462.000000  0    3872829.240  -5547243.599  -1311760.779
10 0 59861  78582.000000  0    3788096.171  -5740716.865   -414480.326
10 0 59861  78702.000000  0    3634702.459  -5831829.745    490089.058
10 0 59861  78822.000000  0    3417112.906  -5817778.798   1386029.837
10 0 59861  78942.000000  0    3140961.496  -5697706.144   2257566.225
10 0 59861  79062.000000  0    2812916.281  -5472733.353   3089351.253
10 0 59861  79182.000000  0    2440524.408  -5145956.379   3866743.440
10 0 59861  79302.000000  0    2032042.323  -4722401.215   4576069.379
10 0 59861  79422.000000  0    1596254.097  -4208940.805   5204866.856
10 0 59861  79542.000000  0    1142283.522  -3614176.045   5742103.609
10 0 59861  79662.000000  0     679402.224  -2948282.840   6178368.355
10 0 59861  79782.000000  0     216840.015  -2222830.585   6506028.908
99
